IRIDIUM 155             
1 43573U 18061E   21092.50035646  .00000077  00000-0  20293-4 0  9995
2 43573  86.3948 131.4901 0002789  93.1207 267.0308 14.34216588140787
IRIDIUM 154             
1 43574U 18061F   21092.48132065  .00000078  00000-0  20783-4 0  9991
2 43574  86.3951 131.5410 0002066  97.8993 262.2438 14.34219513140837
IRIDIUM 163             
1 43575U 18061G   21092.53206280  .00000011  00000-0 -32740-5 0  9994
2 43575  86.3950 131.4930 0002018  80.3294 279.8130 14.34215414140818
IRIDIUM 156             
1 43576U 18061H   21092.50669951  .00000075  00000-0  19657-4 0  9990
2 43576  86.3949 131.5086 0002441  85.4341 274.7133 14.34218727140805
IRIDIUM 164             
1 43577U 18061J   21092.48767617  .00000077  00000-0  20541-4 0  9992
2 43577  86.3951 131.5280 0002040  93.6096 266.5333 14.34218977140840
IRIDIUM 159             
1 43578U 18061K   21092.38618760  .00000077  00000-0  20321-4 0  9992
2 43578  86.3949 131.5472 0002121  95.3079 264.8359 14.34218803140792
IRIDIUM 180             
1 43922U 19002A   21092.45545003  .00000095  00000-0  26770-4 0  9992
2 43922  86.3949  68.3278 0001163  90.5033 269.6296 14.34219207116412
IRIDIUM 176             
1 43923U 19002B   21092.42258719  .00000191  00000-0  26305-4 0  9996
2 43923  86.6084  68.3730 0002302  92.0928 268.0553 14.72254333119441
IRIDIUM 168             
1 43924U 19002C   21092.44912480  .00000097  00000-0  27699-4 0  9993
2 43924  86.3952  68.3539 0001965  91.6496 268.4925 14.34218173116397
IRIDIUM 173             
1 43925U 19002D   21092.43643188  .00000097  00000-0  27503-4 0  9993
2 43925  86.3949  68.3255 0001992  88.5632 271.5792 14.34218924116375
IRIDIUM 169             
1 43926U 19002E   21092.52795527  .00000041  00000-0  69970-5 0  9993
2 43926  86.4174  99.9076 0007062 112.1412 248.0536 14.38610219116824
IRIDIUM 172             
1 43927U 19002F   21092.43007877  .00000090  00000-0  25008-4 0  9995
2 43927  86.3948  68.3301 0001931  89.6049 270.5368 14.34218282116381
IRIDIUM 175             
1 43928U 19002G   21092.41639819  .00000193  00000-0  26697-4 0  9990
2 43928  86.6069  68.2104 0002325  72.8022 287.3450 14.72254818119436
IRIDIUM 171             
1 43929U 19002H   21092.48081746  .00000089  00000-0  24886-4 0  9990
2 43929  86.3958  68.4041 0001985  91.9273 268.2150 14.34219218116383
IRIDIUM 170             
1 43930U 19002J   21092.42873981  .00000180  00000-0  24567-4 0  9994
2 43930  86.6084  68.3770 0002210  85.8391 274.3079 14.72254378119458
IRIDIUM 167             
1 43931U 19002K   21092.47447740  .00000095  00000-0  26812-4 0  9990
2 43931  86.3949  68.3173 0001419  93.6115 266.5243 14.34216815116381
